CTC1_L_00214001-01
1 38860U 23384WA  26037.47803241  .00000000  00000+0  00000-0 0  9991
2 38860  85.0000   0.0000 0000000   0.0000   0.0000 13.42494869    11
CTC1_L_00214001-02
1 38861U 26295FZ  26037.47803241  .00000000  00000+0  00000-0 0  9996
2 38861  85.0000   0.0000 0000000   0.0000  90.0000 13.42494869    11
CTC1_L_00214001-03
1 38862U 24801ZW  26037.47803241  .00000000  00000+0  00000-0 0  9998
2 38862  85.0000   0.0000 0000000   0.0000 180.0000 13.42494869    12
CTC1_L_00214001-04
1 38863U 22177HM  26037.47803241  .00000000  00000+0  00000-0 0  9993
2 38863  85.0000   0.0000 0000000   0.0000 270.0000 13.42494869    13
CTC1_L_00214002-01
1 38864U 24743QM  26037.47803241  .00000000  00000+0  00000-0 0  9995
2 38864  85.0000  12.0000 0000000   0.0000  12.0000 13.42494869    11
CTC1_L_00214002-02
1 38865U 26439BV  26037.47803241  .00000000  00000+0  00000-0 0  9990
2 38865  85.0000  12.0000 0000000   0.0000 102.0000 13.42494869    12
CTC1_L_00214002-03
1 38866U 23805YR  26037.47803241  .00000000  00000+0  00000-0 0  9995
2 38866  85.0000  12.0000 0000000   0.0000 192.0000 13.42494869    12
CTC1_L_00214002-04
1 38867U 23209EQ  26037.47803241  .00000000  00000+0  00000-0 0  9994
2 38867  85.0000  12.0000 0000000   0.0000 282.0000 13.42494869    13
CTC1_L_00214003-01
1 38868U 23420TK  26037.47803241  .00000000  00000+0  00000-0 0  9990
2 38868  85.0000  24.0000 0000000   0.0000  24.0000 13.42494869    11
CTC1_L_00214003-02
1 38869U 25410YJ  26037.47803241  .00000000  00000+0  00000-0 0  9992
2 38869  85.0000  24.0000 0000000   0.0000 114.0000 13.42494869    12
CTC1_L_00214003-03
1 38870U 25598NJ  26037.47803241  .00000000  00000+0  00000-0 0  9991
2 38870  85.0000  24.0000 0000000   0.0000 204.0000 13.42494869    14
CTC1_L_00214003-04
1 38871U 26798GO  26037.47803241  .00000000  00000+0  00000-0 0  9995
2 38871  85.0000  24.0000 0000000   0.0000 294.0000 13.42494869    14
CTC1_L_00214004-01
1 38872U 23259XZ  26037.47803241  .00000000  00000+0  00000-0 0  9995
2 38872  85.0000  36.0000 0000000   0.0000  36.0000 13.42494869    12
CTC1_L_00214004-02
1 38873U 22991EE  26037.47803241  .00000000  00000+0  00000-0 0  9998
2 38873  85.0000  36.0000 0000000   0.0000 126.0000 13.42494869    13
CTC1_L_00214004-03
1 38874U 24929PI  26037.47803241  .00000000  00000+0  00000-0 0  9992
2 38874  85.0000  36.0000 0000000   0.0000 216.0000 13.42494869    14
CTC1_L_00214004-04
1 38875U 24640SY  26037.47803241  .00000000  00000+0  00000-0 0  9993
2 38875  85.0000  36.0000 0000000   0.0000 306.0000 13.42494869    15
CTC1_L_00214005-01
1 38876U 25472OY  26037.47803241  .00000000  00000+0  00000-0 0  9998
2 38876  85.0000  48.0000 0000000   0.0000  48.0000 13.42494869    12
CTC1_L_00214005-02
1 38877U 25164CH  26037.47803241  .00000000  00000+0  00000-0 0  9997
2 38877  85.0000  48.0000 0000000   0.0000 138.0000 13.42494869    13
CTC1_L_00214005-03
1 38878U 26467GW  26037.47803241  .00000000  00000+0  00000-0 0  9995
2 38878  85.0000  48.0000 0000000   0.0000 228.0000 13.42494869    14
CTC1_L_00214005-04
1 38879U 23862QK  26037.47803241  .00000000  00000+0  00000-0 0  9992
2 38879  85.0000  48.0000 0000000   0.0000 318.0000 13.42494869    15
CTC1_L_00214006-01
1 38880U 23890VT  26037.47803241  .00000000  00000+0  00000-0 0  9995
2 38880  85.0000  60.0000 0000000   0.0000  60.0000 13.42494869    15
CTC1_L_00214006-02
1 38881U 26277YQ  26037.47803241  .00000000  00000+0  00000-0 0  9998
2 38881  85.0000  60.0000 0000000   0.0000 150.0000 13.42494869    16
CTC1_L_00214006-03
1 38882U 24728WL  26037.47803241  .00000000  00000+0  00000-0 0  9998
2 38882  85.0000  60.0000 0000000   0.0000 240.0000 13.42494869    17
CTC1_L_00214006-04
1 38883U 24245ST  26037.47803241  .00000000  00000+0  00000-0 0  9993
2 38883  85.0000  60.0000 0000000   0.0000 330.0000 13.42494869    18
CTC1_L_00214007-01
1 38884U 26204LP  26037.47803241  .00000000  00000+0  00000-0 0  9991
2 38884  85.0000  72.0000 0000000   0.0000  72.0000 13.42494869    15
CTC1_L_00214007-02
1 38885U 26408EV  26037.47803241  .00000000  00000+0  00000-0 0  9998
2 38885  85.0000  72.0000 0000000   0.0000 162.0000 13.42494869    16
CTC1_L_00214007-03
1 38886U 22420RV  26037.47803241  .00000000  00000+0  00000-0 0  9999
2 38886  85.0000  72.0000 0000000   0.0000 252.0000 13.42494869    17
CTC1_L_00214007-04
1 38887U 23524FG  26037.47803241  .00000000  00000+0  00000-0 0  9996
2 38887  85.0000  72.0000 0000000   0.0000 342.0000 13.42494869    18
CTC1_L_00214008-01
1 38888U 23257HB  26037.47803241  .00000000  00000+0  00000-0 0  9990
2 38888  85.0000  84.0000 0000000   0.0000  84.0000 13.42494869    15
CTC1_L_00214008-02
1 38889U 24096US  26037.47803241  .00000000  00000+0  00000-0 0  9993
2 38889  85.0000  84.0000 0000000   0.0000 174.0000 13.42494869    16
CTC1_L_00214008-03
1 38890U 24949RV  26037.47803241  .00000000  00000+0  00000-0 0  9992
2 38890  85.0000  84.0000 0000000   0.0000 264.0000 13.42494869    18
CTC1_L_00214008-04
1 38891U 25937XC  26037.47803241  .00000000  00000+0  00000-0 0  9991
2 38891  85.0000  84.0000 0000000   0.0000 354.0000 13.42494869    19
CTC1_L_00214009-01
1 38892U 25165QV  26037.47803241  .00000000  00000+0  00000-0 0  9995
2 38892  85.0000  96.0000 0000000   0.0000  96.0000 13.42494869    16
CTC1_L_00214009-02
1 38893U 24657OM  26037.47803241  .00000000  00000+0  00000-0 0  9991
2 38893  85.0000  96.0000 0000000   0.0000 186.0000 13.42494869    17
CTC1_L_00214009-03
1 38894U 23363YF  26037.47803241  .00000000  00000+0  00000-0 0  9995
2 38894  85.0000  96.0000 0000000   0.0000 276.0000 13.42494869    18
CTC1_L_00214009-04
1 38895U 22782MK  26037.47803241  .00000000  00000+0  00000-0 0  9990
2 38895  85.0000  96.0000 0000000   0.0000   6.0000 13.42494869    10
CTC1_L_00214010-01
1 38896U 26338QA  26037.47803241  .00000000  00000+0  00000-0 0  9992
2 38896  85.0000 108.0000 0000000   0.0000 108.0000 13.42494869    18
CTC1_L_00214010-02
1 38897U 25113QR  26037.47803241  .00000000  00000+0  00000-0 0  9993
2 38897  85.0000 108.0000 0000000   0.0000 198.0000 13.42494869    18
CTC1_L_00214010-03
1 38898U 22910PK  26037.47803241  .00000000  00000+0  00000-0 0  9996
2 38898  85.0000 108.0000 0000000   0.0000 288.0000 13.42494869    19
CTC1_L_00214010-04
1 38899U 23610HI  26037.47803241  .00000000  00000+0  00000-0 0  9995
2 38899  85.0000 108.0000 0000000   0.0000  18.0000 13.42494869    11
CTC1_L_00214011-01
1 38900U 22404XE  26037.47803241  .00000000  00000+0  00000-0 0  9998
2 38900  85.0000 120.0000 0000000   0.0000 120.0000 13.42494869    12
CTC1_L_00214011-02
1 38901U 22966MN  26037.47803241  .00000000  00000+0  00000-0 0  9992
2 38901  85.0000 120.0000 0000000   0.0000 210.0000 13.42494869    13
CTC1_L_00214011-03
1 38902U 23695XF  26037.47803241  .00000000  00000+0  00000-0 0  9993
2 38902  85.0000 120.0000 0000000   0.0000 300.0000 13.42494869    14
CTC1_L_00214011-04
1 38903U 24269LH  26037.47803241  .00000000  00000+0  00000-0 0  9992
2 38903  85.0000 120.0000 0000000   0.0000  30.0000 13.42494869    15
CTC1_L_00214012-01
1 38904U 24833RR  26037.47803241  .00000000  00000+0  00000-0 0  9990
2 38904  85.0000 132.0000 0000000   0.0000 132.0000 13.42494869    12
CTC1_L_00214012-02
1 38905U 25578GD  26037.47803241  .00000000  00000+0  00000-0 0  9998
2 38905  85.0000 132.0000 0000000   0.0000 222.0000 13.42494869    13
CTC1_L_00214012-03
1 38906U 23555UN  26037.47803241  .00000000  00000+0  00000-0 0  9992
2 38906  85.0000 132.0000 0000000   0.0000 312.0000 13.42494869    14
CTC1_L_00214012-04
1 38907U 23996BE  26037.47803241  .00000000  00000+0  00000-0 0  9992
2 38907  85.0000 132.0000 0000000   0.0000  42.0000 13.42494869    15
CTC1_L_00214013-01
1 38908U 25631GD  26037.47803241  .00000000  00000+0  00000-0 0  9991
2 38908  85.0000 144.0000 0000000   0.0000 144.0000 13.42494869    12
CTC1_L_00214013-02
1 38909U 22147OR  26037.47803241  .00000000  00000+0  00000-0 0  9991
2 38909  85.0000 144.0000 0000000   0.0000 234.0000 13.42494869    13
CTC1_L_00214013-03
1 38910U 25257DA  26037.47803241  .00000000  00000+0  00000-0 0  9998
2 38910  85.0000 144.0000 0000000   0.0000 324.0000 13.42494869    15
CTC1_L_00214013-04
1 38911U 26231EH  26037.47803241  .00000000  00000+0  00000-0 0  9992
2 38911  85.0000 144.0000 0000000   0.0000  54.0000 13.42494869    16
CTC1_L_00214014-01
1 38912U 25312HM  26037.47803241  .00000000  00000+0  00000-0 0  9992
2 38912  85.0000 156.0000 0000000   0.0000 156.0000 13.42494869    13
CTC1_L_00214014-02
1 38913U 23539TG  26037.47803241  .00000000  00000+0  00000-0 0  9992
2 38913  85.0000 156.0000 0000000   0.0000 246.0000 13.42494869    14
CTC1_L_00214014-03
1 38914U 26586BF  26037.47803241  .00000000  00000+0  00000-0 0  9998
2 38914  85.0000 156.0000 0000000   0.0000 336.0000 13.42494869    15
CTC1_L_00214014-04
1 38915U 22207BQ  26037.47803241  .00000000  00000+0  00000-0 0  9995
2 38915  85.0000 156.0000 0000000   0.0000  66.0000 13.42494869    16
CTC1_L_00214015-01
1 38916U 23423HX  26037.47803241  .00000000  00000+0  00000-0 0  9997
2 38916  85.0000 168.0000 0000000   0.0000 168.0000 13.42494869    13
CTC1_L_00214015-02
1 38917U 22789TL  26037.47803241  .00000000  00000+0  00000-0 0  9992
2 38917  85.0000 168.0000 0000000   0.0000 258.0000 13.42494869    14
CTC1_L_00214015-03
1 38918U 24461XJ  26037.47803241  .00000000  00000+0  00000-0 0  9992
2 38918  85.0000 168.0000 0000000   0.0000 348.0000 13.42494869    15
CTC1_L_00214015-04
1 38919U 24611XL  26037.47803241  .00000000  00000+0  00000-0 0  9990
2 38919  85.0000 168.0000 0000000   0.0000  78.0000 13.42494869    16
CTC1_L_00214016-01
1 38920U 25280UP  26037.47803241  .00000000  00000+0  00000-0 0  9995
2 38920  85.0000 180.0000 0000000   0.0000 180.0000 13.42494869    16
CTC1_L_00214016-02
1 38921U 22853BN  26037.47803241  .00000000  00000+0  00000-0 0  9999
2 38921  85.0000 180.0000 0000000   0.0000 270.0000 13.42494869    17
